NORAD_CAT_ID,OBJECT_NAME,OBJECT_TYPE,EPOCH,MEAN_MOTION,ECCENTRICITY,INCLINATION,RA_OF_ASC_NODE,ARG_OF_PERICENTER,MEAN_ANOMALY,BSTAR,MEAN_MOTION_DOT,MEAN_MOTION_DDOT,TLE_LINE0,TLE_LINE1,TLE_LINE2,SEMIMAJOR_AXIS,PERIOD,APOGEE,PERIGEE,DECAYED
52310.0,STARLINK-3688,PAYLOAD,2022-09-16 08:10:22,15.08836019,0.0001730999999999,53.2183,31.9377,53.6319,306.4833,8.7175e-05,1.099e-05,0.0,0 STARLINK-3688,1 52310U 22041BB  22259.34053788  .00001099  00000-0  87175-4 0  9999,2 52310  53.2183  31.9377 0001731  53.6319 306.4833 15.08836019 24086,6917.893,95.438,540.955,538.56,0.0
52310.0,STARLINK-3688,PAYLOAD,2022-09-16 17:42:41,15.08831292,0.0001629999999999,53.2191,30.1566,53.8359,306.2784,5.4773e-05,5.84e-06,0.0,0 STARLINK-3688,1 52310U 22041BB  22259.73798262  .00000584  00000-0  54773-4 0  9991,2 52310  53.2191  30.1566 0001630  53.8359 306.2784 15.08831292 24148,6917.906999999997,95.438,540.9,538.644,0.0
52310.0,STARLINK-3688,PAYLOAD,2022-09-17 12:47:20,15.08827341,0.0001720999999999,53.2196,26.5892,37.9825,322.1288,-8.736e-05,-1.678e-05,0.0,0 STARLINK-3688,1 52310U 22041BB  22260.53287448 -.00001678  00000-0 -87360-4 0  9995,2 52310  53.2196  26.5892 0001721  37.9825 322.1288 15.08827341 24265,6917.919,95.438,540.975,538.594,0.0
52310.0,STARLINK-3688,PAYLOAD,2022-09-17 17:33:29,15.08830973,0.0001688,53.2187,25.6954,54.0282,306.0866,-7.474100000000001e-05,-1.477e-05,0.0,0 STARLINK-3688,1 52310U 22041BB  22260.73159280 -.00001477  00000-0 -74741-4 0  9995,2 52310  53.2187  25.6954 0001688  54.0282 306.0866 15.08830973 24294,6917.908,95.438,540.941,538.605,0.0
52310.0,STARLINK-3688,PAYLOAD,2022-09-18 01:30:25,15.08833428,0.0001721999999999,53.219,24.2075,55.1469,304.9685,2.6781e-05,1.38e-06,0.0,0 STARLINK-3688,1 52310U 22041BB  22261.06278954  .00000138  00000-0  26781-4 0  9994,2 52310  53.2190  24.2075 0001722  55.1469 304.9685 15.08833428 24345,6917.9,95.438,540.957,538.5740000000002,0.0
52310.0,STARLINK-3688,PAYLOAD,2022-09-18 11:02:43,15.08842081,0.0001669,53.2192,22.4246,55.0332,305.0817,5.5117e-05,5.89e-06,0.0,0 STARLINK-3688,1 52310U 22041BB  22261.46022412  .00000589  00000-0  55117-4 0  9999,2 52310  53.2192  22.4246 0001669  55.0332 305.0817 15.08842081 24406,6917.874,95.437,540.894,538.5840000000002,0.0
52310.0,STARLINK-3688,PAYLOAD,2022-09-18 12:38:06,15.08843234,0.0001686,53.2193,22.1274,55.1836,304.9315,6.265699999999999e-05,7.09e-06,0.0,0 STARLINK-3688,1 52310U 22041BB  22261.52646322  .00000709  00000-0  62657-4 0  9999,2 52310  53.2193  22.1274 0001686  55.1836 304.9315 15.08843234 24417,6917.871,95.437,540.9019999999998,538.569,0.0
52310.0,STARLINK-3688,PAYLOAD,2022-09-18 17:24:15,15.08845565,0.0001641999999999,53.2192,21.2355,55.0485,305.0661,0.0001333,1.834e-05,0.0,0 STARLINK-3688,1 52310U 22041BB  22261.72517971  .00001834  00000-0  13330-3 0  9991,2 52310  53.2192  21.2355 0001642  55.0485 305.0661 15.08845565 24445,6917.863,95.437,540.864,538.592,0.0
52310.0,STARLINK-3688,PAYLOAD,2022-09-19 10:53:30,15.08837222,0.0001668,53.2192,17.9646,54.8616,305.2533,0.00019552,2.825e-05,0.0,0 STARLINK-3688,1 52310U 22041BB  22262.45382340  .00002825  00000-0  19552-3 0  9995,2 52310  53.2192  17.9646 0001668  54.8616 305.2533 15.08837222 24554,6917.889,95.438,540.908,538.6,0.0
52310.0,STARLINK-3688,PAYLOAD,2022-09-19 17:15:02,15.0884443,0.0001652,53.2196,16.7751,58.0627,302.0526,0.0001862,2.677e-05,0.0,0 STARLINK-3688,1 52310U 22041BB  22262.71877901  .00002677  00000-0  18620-3 0  9996,2 52310  53.2196  16.7751 0001652  58.0627 302.0526 15.08844430 24593,6917.8669999999975,95.437,540.875,538.589,0.0
52310.0,STARLINK-3688,PAYLOAD,2022-09-20 13:55:03,15.08844912,0.0002296999999999,53.2197,12.9107,64.40100000000001,295.7219,3.8405e-05,3.23e-06,0.0,0 STARLINK-3688,1 52310U 22041BB  22263.57990321  .00000323  00000-0  38405-4 0  9993,2 52310  53.2197  12.9107 0002297  64.4010 295.7219 15.08844912 24727,6917.865,95.437,541.319,538.141,0.0
52310.0,STARLINK-3688,PAYLOAD,2022-09-20 18:41:13,15.08836456,0.000193,53.2185,12.0188,49.1174,310.9985,-3.6736e-05,-8.73e-06,0.0,0 STARLINK-3688,1 52310U 22041BB  22263.77863010 -.00000873  00000-0 -36736-4 0  9996,2 52310  53.2185  12.0188 0001930  49.1174 310.9985 15.08836456 24755,6917.891,95.438,541.091,538.4209999999998,0.0
52310.0,STARLINK-3688,PAYLOAD,2022-09-21 10:35:04,15.08840506,0.000165,53.2185,9.0444,51.68600000000001,308.428,7.2548e-06,-1.73e-06,0.0,0 STARLINK-3688,1 52310U 22041BB  22264.44102423 -.00000173  00000-0  72548-5 0  9999,2 52310  53.2185   9.0444 0001650  51.6860 308.4280 15.08840506 24857,6917.879,95.438,540.885,538.602,0.0
52310.0,STARLINK-3688,PAYLOAD,2022-09-21 16:56:36,15.08860358,0.0001587,53.2187,7.8557,47.4601,312.6525,-0.00030482,-5.139e-05,0.0,0 STARLINK-3688,1 52310U 22041BB  22264.70598047 -.00005139  00000-0 -30482-3 0  9996,2 52310  53.2187   7.8557 0001587  47.4601 312.6525 15.08860358 24895,6917.818,95.436,540.781,538.585,0.0
52310.0,STARLINK-3688,PAYLOAD,2022-09-22 13:36:39,15.088250400000002,0.0001636999999999,53.2191,3.9897,48.5884,311.5249,-4.9551e-05,-1.076e-05,0.0,0 STARLINK-3688,1 52310U 22041BB  22265.56712082 -.00001076  00000-0 -49551-4 0  9992,2 52310  53.2191   3.9897 0001637  48.5884 311.5249 15.08825040 25021,6917.926,95.439,540.924,538.659,0.0
52310.0,STARLINK-3688,PAYLOAD,2022-09-22 23:08:57,15.08835534,0.000155,53.2208,2.2033,52.54600000000001,307.5673,1.9334e-05,2e-07,0.0,0 STARLINK-3688,1 52310U 22041BB  22265.96455365  .00000020  00000-0  19334-4 0  9996,2 52310  53.2208   2.2033 0001550  52.5460 307.5673 15.08835534 25084,6917.894,95.438,540.831,538.687,0.0
52310.0,STARLINK-3688,PAYLOAD,2022-09-23 13:27:25,15.08843168,0.0001742,53.2193,359.5287,52.4262,307.6888,0.00011476,1.539e-05,0.0,0 STARLINK-3688,1 52310U 22041BB  22266.56070808  .00001539  00000-0  11476-3 0  9992,2 52310  53.2193 359.5287 0001742  52.4262 307.6888 15.08843168 25179,6917.871,95.437,540.941,538.531,0.0
52310.0,STARLINK-3688,PAYLOAD,2022-09-23 15:02:48,15.08845097,0.0001746,53.2195,359.2315,51.8402,308.2747,0.00013116,1.8e-05,0.0,0 STARLINK-3688,1 52310U 22041BB  22266.62694646  .00001800  00000-0  13116-3 0  9995,2 52310  53.2195 359.2315 0001746  51.8402 308.2747 15.08845097 25188,6917.865,95.437,540.938,538.5219999999998,0.0
52310.0,STARLINK-3688,PAYLOAD,2022-09-24 13:18:12,15.088230800000002,0.0001823,53.2195,355.0685,50.7733,309.3421,0.0005073,7.791e-05,0.0,0 STARLINK-3688,1 52310U 22041BB  22267.55430957  .00007791  00000-0  50730-3 0  9999,2 52310  53.2195 355.0685 0001823  50.7733 309.3421 15.08823080 25328,6917.932,95.439,541.058,538.536,0.0
52310.0,STARLINK-3688,PAYLOAD,2022-09-24 16:28:58,15.08836986,0.0001928,53.2192,354.4741,53.7123,306.4047,0.00040176,6.111e-05,0.0,0 STARLINK-3688,1 52310U 22041BB  22267.68678508  .00006111  00000-0  40176-3 0  9997,2 52310  53.2192 354.4741 0001928  53.7123 306.4047 15.08836986 25346,6917.89,95.438,541.0880000000002,538.4209999999998,0.0
52310.0,STARLINK-3688,PAYLOAD,2022-09-25 11:33:36,15.08845668,0.0001865999999999,53.219,350.9055,54.4553,305.6613,-3.1215e-05,-7.85e-06,0.0,0 STARLINK-3688,1 52310U 22041BB  22268.48166692 -.00000785  00000-0 -31215-4 0  9990,2 52310  53.2190 350.9055 0001866  54.4553 305.6613 15.08845668 25469,6917.863,95.437,541.019,538.437,0.0
52310.0,STARLINK-3688,PAYLOAD,2022-09-25 14:44:22,15.08846621,0.0001871,53.219,350.3109,53.994,306.1225,-2.6805e-05,-7.15e-06,0.0,0 STARLINK-3688,1 52310U 22041BB  22268.61414534 -.00000715  00000-0 -26805-4 0  9998,2 52310  53.2190 350.3109 0001871  53.9940 306.1225 15.08846621 25480,6917.86,95.437,541.019,538.431,0.0
52310.0,STARLINK-3688,PAYLOAD,2022-09-26 08:13:37,15.08839655,0.000159,53.2181,347.0397,59.8176,300.2973,-0.00012649,-2.301e-05,0.0,0 STARLINK-3688,1 52310U 22041BB  22269.34279097 -.00002301  00000-0 -12649-3 0  9995,2 52310  53.2181 347.0397 0001590  59.8176 300.2973 15.08839655 25592,6917.880999999999,95.438,540.846,538.6469999999998,0.0
52310.0,STARLINK-3688,PAYLOAD,2022-09-26 11:24:23,15.08834748,0.0001735,53.2188,346.4436,56.7692,303.3466,-0.00014629,-2.615e-05,0.0,0 STARLINK-3688,1 52310U 22041BB  22269.47527520 -.00002615  00000-0 -14629-3 0  9994,2 52310  53.2188 346.4436 0001735  56.7692 303.3466 15.08834748 25618,6917.896,95.438,540.962,538.561,0.0
52310.0,STARLINK-3688,PAYLOAD,2022-09-26 14:35:10,15.08829859,0.0001803,53.2192,345.8511,52.8192,307.2965,-0.00018177,-3.179e-05,0.0,0 STARLINK-3688,1 52310U 22041BB  22269.60776016 -.00003179  00000-0 -18177-3 0  9993,2 52310  53.2192 345.8511 0001803  52.8192 307.2965 15.08829859 25634,6917.911,95.438,541.024,538.529,0.0
52310.0,STARLINK-3688,PAYLOAD,2022-09-27 11:15:10,15.08838529,0.0001705,53.2194,341.9852,53.3742,306.7407,4.8335e-05,4.81e-06,0.0,0 STARLINK-3688,1 52310U 22041BB  22270.46887007  .00000481  00000-0  48335-4 0  9993,2 52310  53.2194 341.9852 0001705  53.3742 306.7407 15.08838529 25762,6917.885,95.438,540.929,538.57,0.0
52310.0,STARLINK-3688,PAYLOAD,2022-09-27 14:25:56,15.08842858,0.0001669,53.2195,341.3901,53.8318,306.2829,7.8773e-05,9.66e-06,0.0,0 STARLINK-3688,1 52310U 22041BB  22270.60134656  .00000966  00000-0  78773-4 0  9991,2 52310  53.2195 341.3901 0001669  53.8318 306.2829 15.08842858 25780,6917.871999999999,95.437,540.891,538.582,0.0
52310.0,STARLINK-3688,PAYLOAD,2022-09-28 11:05:56,15.08842429,0.0001665999999999,53.2187,337.5244,43.004,317.1082,0.00021303,3.104e-05,0.0,0 STARLINK-3688,1 52310U 22041BB  22271.46246061  .00003104  00000-0  21303-3 0  9993,2 52310  53.2187 337.5244 0001666  43.0040 317.1082 15.08842429 25919,6917.873000000001,95.437,540.89,538.585,0.0
52310.0,STARLINK-3688,PAYLOAD,2022-09-28 14:16:42,15.08844498,0.0001749,53.219,336.9309,41.4931,318.6194,0.00023209,3.408e-05,0.0,0 STARLINK-3688,1 52310U 22041BB  22271.59493871  .00003408  00000-0  23209-3 0  9994,2 52310  53.2190 336.9309 0001749  41.4931 318.6194 15.08844498 25931,6917.8669999999975,95.437,540.942,538.5219999999998,0.0
